OBJECT_NAME,OBJECT_ID,EPOCH,MEAN_MOTION,ECCENTRICITY,INCLINATION,RA_OF_ASC_NODE,ARG_OF_PERICENTER,MEAN_ANOMALY,EPHEMERIS_TYPE,CLASSIFICATION_TYPE,NORAD_CAT_ID,ELEMENT_SET_NO,REV_AT_EPOCH,BSTAR,MEAN_MOTION_DOT,MEAN_MOTION_DDOT
SAUDISAT 1C (SO-50),2002-058C,2026-06-14T04:31:06.464064,14.83041063,.0075328,64.5509,138.2640,263.0278,96.2256,0,U,27607,999,26401,.12736E-3,.933E-5,0
SAUDISAT 2,2004-025F,2026-06-14T00:09:33.056640,14.56682374,.0023711,98.5507,164.9063,308.4734,51.4336,0,U,28371,999,16528,.66584E-4,.248E-5,0
SAUDISAT 3,2007-012B,2026-06-14T03:08:02.580288,14.71424084,.0013482,98.1455,115.5291,234.3373,125.6579,0,U,31118,999,2729,.45805E-4,.233E-5,0
PISAT,2016-059B,2026-06-13T22:37:18.200928,14.68978670,.0028122,97.8179,165.5348,213.4292,146.5139,0,U,41784,999,51926,.14659E-3,.816E-5,0
FLYING LAPTOP,2017-042G,2026-06-14T04:27:42.768288,15.01127303,.0019513,97.4668,320.8343,131.5307,228.7595,0,U,42831,999,48600,.24429E-3,.3083E-4,0
SALSAT,2020-068K,2026-06-14T00:08:22.352064,15.29759103,.0008281,97.8843,167.8766,321.5879,38.4769,0,U,46495,999,31487,.28632E-3,.8178E-4,0
